{
    "links": {
        "self": "http://www.neowsapp.com/rest/v1/neo/3630271?api_key=iIulBulltgU6a56xZRHN4H3l9WmuAYTsLGpBGhQ2"
    },
    "id": "3630271",
    "neo_reference_id": "3630271",
    "name": "(2013 EQ4)",
    "designation": "2013 EQ4",
    "nasa_jpl_url": "http://ssd.jpl.nasa.gov/sbdb.cgi?sstr=3630271",
    "absolute_magnitude_h": 23.2,
    "estimated_diameter": {
        "kilometers": {
            "estimated_diameter_min": 0.0608912622,
            "estimated_diameter_max": 0.1361570015
        },
        "meters": {
            "estimated_diameter_min": 60.8912622106,
            "estimated_diameter_max": 136.1570015386
        },
        "miles": {
            "estimated_diameter_min": 0.0378360645,
            "estimated_diameter_max": 0.0846040122
        },
        "feet": {
            "estimated_diameter_min": 199.7744887109,
            "estimated_diameter_max": 446.7093369279
        }
    },
    "is_potentially_hazardous_asteroid": false,
    "close_approach_data": [
        {
            "close_approach_date": "1930-02-25",
            "close_approach_date_full": "1930-Feb-25 19:17",
            "epoch_date_close_approach": -1257482580000,
            "relative_velocity": {
                "kilometers_per_second": "14.882203102",
                "kilometers_per_hour": "53575.9311673346",
                "miles_per_hour": "33290.0001189475"
            },
            "miss_distance": {
                "astronomical": "0.2259149313",
                "lunar": "87.8809082757",
                "kilometers": "33796392.523676331",
                "miles": "21000104.5264261278"
            },
            "orbiting_body": "Earth"
        },
        {
            "close_approach_date": "2006-06-07",
            "close_approach_date_full": "2006-Jun-07 08:26",
            "epoch_date_close_approach": 1149668760000,
            "relative_velocity": {
                "kilometers_per_second": "19.0939485332",
                "kilometers_per_hour": "68738.2147195873",
                "miles_per_hour": "42711.2534739569"
            },
            "miss_distance": {
                "astronomical": "0.3874782778",
                "lunar": "150.7290500642",
                "kilometers": "57965925.030148286",
                "miles": "36018355.6203909068"
            },
            "orbiting_body": "Earth"
        },
        {
            "close_approach_date": "2013-04-01",
            "close_approach_date_full": "2013-Apr-01 10:03",
            "epoch_date_close_approach": 1364810580000,
            "relative_velocity": {
                "kilometers_per_second": "7.9288583585",
                "kilometers_per_hour": "28543.8900906484",
                "miles_per_hour": "17736.0632621587"
            },
            "miss_distance": {
                "astronomical": "0.0704821881",
                "lunar": "27.4175711709",
                "kilometers": "10543985.212699347",
                "miles": "6551728.6034791086"
            },
            "orbiting_body": "Earth"
        },
        {
            "close_approach_date": "2020-02-16",
            "close_approach_date_full": "2020-Feb-16 16:25",
            "epoch_date_close_approach": 1581870300000,
            "relative_velocity": {
                "kilometers_per_second": "20.1871798353",
                "kilometers_per_hour": "72673.8474071549",
                "miles_per_hour": "45156.7025736291"
            },
            "miss_distance": {
                "astronomical": "0.4015901658",
                "lunar": "156.2185744962",
                "kilometers": "60077033.416626846",
                "miles": "37330137.5436126348"
            },
            "orbiting_body": "Earth"
        },
        {
            "close_approach_date": "2162-02-24",
            "close_approach_date_full": "2162-Feb-24 12:59",
            "epoch_date_close_approach": 6063685140000,
            "relative_velocity": {
                "kilometers_per_second": "16.9674169761",
                "kilometers_per_hour": "61082.7011139733",
                "miles_per_hour": "37954.4150338464"
            },
            "miss_distance": {
                "astronomical": "0.2793939972",
                "lunar": "108.6842649108",
                "kilometers": "41796746.871905964",
                "miles": "25971294.2012877432"
            },
            "orbiting_body": "Earth"
        }
    ],
    "orbital_data": {
        "orbit_id": "20",
        "orbit_determination_date": "2017-04-06 08:46:35",
        "first_observation_date": "2013-03-03",
        "last_observation_date": "2013-04-11",
        "data_arc_in_days": 39,
        "observations_used": 72,
        "orbit_uncertainty": "7",
        "minimum_orbit_intersection": ".0576428",
        "jupiter_tisserand_invariant": "3.366",
        "epoch_osculation": "2459000.5",
        "eccentricity": ".5581829481866029",
        "semi_major_axis": "2.289222999220856",
        "inclination": "6.676372734809997",
        "ascending_node_longitude": "158.0157585773822",
        "orbital_period": "1265.11666796684",
        "perihelion_distance": "1.011417756459182",
        "perihelion_argument": "41.80788840123916",
        "aphelion_distance": "3.567028241982531",
        "perihelion_time": "2458922.213739227117",
        "mean_anomaly": "22.27703941608059",
        "mean_motion": ".2845587360559824",
        "equinox": "J2000",
        "orbit_class": {
            "orbit_class_type": "APO",
            "orbit_class_description": "Near-Earth asteroid orbits which cross the Earth’s orbit similar to that of 1862 Apollo",
            "orbit_class_range": "a (semi-major axis) > 1.0 AU; q (perihelion) < 1.017 AU"
        }
    },
    "is_sentry_object": false
}